QIANFAN-73              
1 63159U 25046A   25351.86395537  .00000106  00000+0  14556-3 0  9993
2 63159  88.9764 319.4920 0016749 106.0156 254.2841 13.50978323 48102
QIANFAN-74              
1 63160U 25046B   25351.92139897  .00000098  00000+0  13336-3 0  9992
2 63160  88.9764 319.3748 0002016  76.1964 283.9412 13.50975296 48173
QIANFAN-75              
1 63161U 25046C   25351.90869456  .00000150  00000+0  21380-3 0  9999
2 63161  88.9766 319.6098 0017820 108.7065 251.6022 13.50980194 48048
QIANFAN-76              
1 63162U 25046D   25351.90533999  .00000167  00000+0  23994-3 0  9991
2 63162  88.9765 319.5908 0015349 108.7735 251.5083 13.50978031 48059
QIANFAN-77              
1 63163U 25046E   25351.91786444  .00000313  00000+0  21823-3 0  9990
2 63163  88.9766 317.5540 0016958  66.7960 293.5000 13.96091941 49176
QIANFAN-78              
1 63164U 25046F   25351.87215776  .00000121  00000+0  16917-3 0  9996
2 63164  88.9764 319.4581 0016702 111.1573 249.1365 13.50978632 48129
QIANFAN-79              
1 63165U 25046G   25351.90081310  .00000122  00000+0  16979-3 0  9995
2 63165  88.9768 319.5629 0016417 109.4447 250.8480 13.50980331 48071
QIANFAN-80              
1 63166U 25046H   25351.91733909  .00000137  00000+0  19248-3 0  9993
2 63166  88.9766 319.2679 0015320 112.9479 247.3291 13.50978223 48234
